[{"OBJECT_NAME":"COSMOS 2494 (SKRL-756 2)","OBJECT_ID":"2013-078B","EPOCH":"2026-03-09T22:07:38.657280","MEAN_MOTION":15.04216116,"ECCENTRICITY":0.00160459,"INCLINATION":82.4161,"RA_OF_ASC_NODE":348.0656,"ARG_OF_PERICENTER":176.5861,"MEAN_ANOMALY":183.5478,"EPHEMERIS_TYPE":0,"CLASSIFICATION_TYPE":"U","NORAD_CAT_ID":39491,"ELEMENT_SET_NO":999,"REV_AT_EPOCH":66388,"BSTAR":0.0003906904,"MEAN_MOTION_DOT":5.469e-5,"MEAN_MOTION_DDOT":0},{"OBJECT_NAME":"STARLINK-2567","OBJECT_ID":"2021-036A","EPOCH":"2026-03-09T05:01:13.564992","MEAN_MOTION":15.06409165,"ECCENTRICITY":0.00013167,"INCLINATION":53.0552,"RA_OF_ASC_NODE":48.774,"ARG_OF_PERICENTER":114.84,"MEAN_ANOMALY":245.2726,"EPHEMERIS_TYPE":0,"CLASSIFICATION_TYPE":"U","NORAD_CAT_ID":48276,"ELEMENT_SET_NO":999,"REV_AT_EPOCH":26873,"BSTAR":-4.4168655e-5,"MEAN_MOTION_DOT":-9.39e-6,"MEAN_MOTION_DDOT":0}]
